NORAD_CAT_ID,OBJECT_NAME,OBJECT_TYPE,EPOCH,MEAN_MOTION,ECCENTRICITY,INCLINATION,RA_OF_ASC_NODE,ARG_OF_PERICENTER,MEAN_ANOMALY,BSTAR,MEAN_MOTION_DOT,MEAN_MOTION_DDOT,TLE_LINE0,TLE_LINE1,TLE_LINE2,SEMIMAJOR_AXIS,PERIOD,APOGEE,PERIGEE,DECAYED
53399.0,STARLINK-4528,PAYLOAD,2023-04-09 14:47:19,15.08841499,0.000149,53.2152,225.4232,79.4822,280.6338,6.3243e-05,7.19e-06,0.0,0 STARLINK-4528,1 53399U 22097M   23099.61619968  .00000719  00000-0  63243-4 0  9997,2 53399  53.2152 225.4232 0001490  79.4822 280.6338 15.08841499 37723,6917.876,95.437,540.772,538.71,0.0
53399.0,STARLINK-4528,PAYLOAD,2023-04-10 08:16:34,15.08843984,0.0001484,53.2147,222.1527,80.2717,279.8442,0.00025496,3.772e-05,0.0,0 STARLINK-4528,1 53399U 22097M   23100.34483968  .00003772  00000-0  25496-3 0  9998,2 53399  53.2147 222.1527 0001484  80.2717 279.8442 15.08843984 37349,6917.868,95.437,540.76,538.707,0.0
53399.0,STARLINK-4528,PAYLOAD,2023-04-11 11:18:06,15.08852435,0.0001312,53.2143,217.095,102.4997,257.6142,0.00022373,3.276e-05,0.0,0 STARLINK-4528,1 53399U 22097M   23101.47091037  .00003276  00000-0  22373-3 0  9995,2 53399  53.2143 217.0950 0001312 102.4997 257.6142 15.08852435 37516,6917.842,95.437,540.615,538.8,0.0
53399.0,STARLINK-4528,PAYLOAD,2023-04-12 00:01:11,15.08847051,0.0001073,53.2147,214.717,102.5991,257.5121,5.8715e-05,6.47e-06,0.0,0 STARLINK-4528,1 53399U 22097M   23102.00082932  .00000647  00000-0  58715-4 0  9998,2 53399  53.2147 214.7170 0001073 102.5991 257.5121 15.08847051 37599,6917.859,95.437,540.466,538.982,0.0
53399.0,STARLINK-4528,PAYLOAD,2023-04-12 11:08:54,15.08819879,0.0001239,53.2173,212.6367,117.5599,242.552,0.00051945,7.984e-05,0.0,0 STARLINK-4528,1 53399U 22097M   23102.46452399  .00007984  00000-0  51945-3 0  9994,2 53399  53.2173 212.6367 0001239 117.5599 242.5520 15.08819879 37669,6917.942,95.439,540.664,538.95,0.0
53399.0,STARLINK-4528,PAYLOAD,2023-04-12 14:19:40,15.08841971,6.88e-05,53.2145,212.0408,103.2728,256.8341,1.1613e-05,-1.03e-06,0.0,0 STARLINK-4528,1 53399U 22097M   23102.59699075 -.00000103  00000-0  11613-4 0  9998,2 53399  53.2145 212.0408 0000688 103.2728 256.8341 15.08841971 38175,6917.874,95.437,540.215,539.263,0.0
53399.0,STARLINK-4528,PAYLOAD,2023-04-13 07:48:55,15.08834726,0.0001403,53.2201,208.7714,115.7211,244.3926,3.6517e-05,2.93e-06,0.0,0 STARLINK-4528,1 53399U 22097M   23103.32563767  .00000293  00000-0  36517-4 0  9997,2 53399  53.2201 208.7714 0001403 115.7211 244.3926 15.08834726 38284,6917.897,95.438,540.732,538.791,0.0
53399.0,STARLINK-4528,PAYLOAD,2023-04-13 17:21:13,15.08844781,8.86e-05,53.2161,206.9841,93.7603,266.3491,9.1301e-05,1.166e-05,0.0,0 STARLINK-4528,1 53399U 22097M   23103.72306987  .00001166  00000-0  91301-4 0  9992,2 53399  53.2161 206.9841 0000886  93.7603 266.3491 15.08844781 37859,6917.866,95.437,540.344,539.118,0.0
53399.0,STARLINK-4528,PAYLOAD,2023-04-14 07:39:42,15.08829686,8.66e-05,53.216,204.3099,102.6016,257.5073,6.6157e-05,7.65e-06,0.0,0 STARLINK-4528,1 53399U 22097M   23104.31924335  .00000765  00000-0  66157-4 0  9996,2 53399  53.2160 204.3099 0000866 102.6016 257.5073 15.08829686 37946,6917.912,95.438,540.376,539.178,0.0
53399.0,STARLINK-4528,PAYLOAD,2023-04-14 12:25:51,15.08840069,9.02e-05,53.2149,203.4164,85.1208,274.9887,8.0059e-05,9.87e-06,0.0,0 STARLINK-4528,1 53399U 22097M   23104.51795592  .00000987  00000-0  80059-4 0  9992,2 53399  53.2149 203.4164 0000902  85.1208 274.9887 15.08840069 38467,6917.88,95.438,540.369,539.121,0.0
53399.0,STARLINK-4528,PAYLOAD,2023-04-15 13:52:01,15.08852992,0.0001146,53.2146,198.6581,93.8259,266.2864,0.00034074,5.141e-05,0.0,0 STARLINK-4528,1 53399U 22097M   23105.57779245  .00005141  00000-0  34074-3 0  9998,2 53399  53.2146 198.6581 0001146  93.8259 266.2864 15.08852992 38136,6917.841,95.437,540.498,538.913,0.0
53399.0,STARLINK-4528,PAYLOAD,2023-04-16 05:45:53,15.08835638,0.0001448,53.2135,195.6857,70.0445,290.0703,7.2292e-05,8.63e-06,0.0,0 STARLINK-4528,1 53399U 22097M   23106.24020194  .00000863  00000-0  72292-4 0  9996,2 53399  53.2135 195.6857 0001448  70.0445 290.0703 15.08835638 38232,6917.894,95.438,540.76,538.757,0.0
53399.0,STARLINK-4528,PAYLOAD,2023-04-16 12:07:26,15.08833582,0.0001439,53.2152,194.4963,68.7757,291.3389,-2.3333e-05,-6.59e-06,0.0,0 STARLINK-4528,1 53399U 22097M   23106.50516379 -.00000659  00000-0 -23333-4 0  9997,2 53399  53.2152 194.4963 0001439  68.7757 291.3389 15.08833582 38764,6917.9,95.438,540.76,538.77,0.0
53399.0,STARLINK-4528,PAYLOAD,2023-04-17 11:58:13,15.08840536,0.0001543,53.215,190.0366,60.0962,300.0183,0.00018453,2.65e-05,0.0,0 STARLINK-4528,1 53399U 22097M   23107.49876622  .00002650  00000-0  18453-3 0  9993,2 53399  53.2150 190.0366 0001543  60.0962 300.0183 15.08840536 38420,6917.879,95.438,540.811,538.676,0.0
53399.0,STARLINK-4528,PAYLOAD,2023-04-18 10:13:37,15.0884271,0.0001565,53.2141,185.8734,59.7055,300.4092,0.00027799,4.139e-05,0.0,0 STARLINK-4528,1 53399U 22097M   23108.42612787  .00004139  00000-0  27799-3 0  9994,2 53399  53.2141 185.8734 0001565  59.7055 300.4092 15.08842710 39052,6917.872,95.437,540.82,538.654,0.0
53399.0,STARLINK-4528,PAYLOAD,2023-04-18 14:59:46,15.08848659,0.0001421,53.214,184.9794,75.6657,284.4493,0.00032906,4.954e-05,0.0,0 STARLINK-4528,1 53399U 22097M   23108.62484404  .00004954  00000-0  32906-3 0  9990,2 53399  53.2140 184.9794 0001421  75.6657 284.4493 15.08848659 38595,6917.854,95.437,540.702,538.736,0.0
53399.0,STARLINK-4528,PAYLOAD,2023-04-19 05:18:15,15.08829546,0.0001034,53.2149,182.303,78.809,281.3018,-6.9277e-05,-1.39e-05,0.0,0 STARLINK-4528,1 53399U 22097M   23109.22101251 -.00001390  00000-0 -69277-4 0  9998,2 53399  53.2149 182.3030 0001034  78.8090 281.3018 15.08829546 38688,6917.912,95.438,540.493,539.062,0.0
53399.0,STARLINK-4528,PAYLOAD,2023-04-19 13:15:11,15.08830404,0.0001396,53.2149,180.816,94.6967,265.4185,-2.5475e-05,-6.93e-06,0.0,0 STARLINK-4528,1 53399U 22097M   23109.55221538 -.00000693  00000-0 -25475-4 0  9992,2 53399  53.2149 180.8160 0001396  94.6967 265.4185 15.08830404 39229,6917.91,95.438,540.74,538.809,0.0
53399.0,STARLINK-4528,PAYLOAD,2023-04-19 21:12:06,15.08841074,0.0001274,53.2144,179.3283,96.0593,264.0544,0.0001541,2.166e-05,0.0,0 STARLINK-4528,1 53399U 22097M   23109.88341114  .00002166  00000-0  15410-3 0  9993,2 53399  53.2144 179.3283 0001274  96.0593 264.0544 15.08841074 39273,6917.877,95.437,540.623,538.861,0.0
53399.0,STARLINK-4528,PAYLOAD,2023-04-20 13:05:57,15.08860489,0.000142,53.2142,176.3555,95.7076,264.4078,0.00042299,6.454e-05,0.0,0 STARLINK-4528,1 53399U 22097M   23110.54580240  .00006454  00000-0  42299-3 0  9992,2 53399  53.2142 176.3555 0001420  95.7076 264.4078 15.08860489 39373,6917.818,95.436,540.665,538.7,0.0
53399.0,STARLINK-4528,PAYLOAD,2023-04-20 21:02:53,15.0884229,8.51e-05,53.2146,174.8695,117.0715,243.0364,0.00015537,2.186e-05,0.0,0 STARLINK-4528,1 53399U 22097M   23110.87700609  .00002186  00000-0  15537-3 0  9994,2 53399  53.2146 174.8695 0000851 117.0715 243.0364 15.08842290 39427,6917.873,95.437,540.327,539.15,0.0
53399.0,STARLINK-4528,PAYLOAD,2023-04-21 03:24:26,15.08837126,0.0001592,53.2148,173.6808,94.6112,265.5062,-3.6764e-06,-3.47e-06,0.0,0 STARLINK-4528,1 53399U 22097M   23111.14197150 -.00000347  00000-0 -36764-5 0  9992,2 53399  53.2148 173.6808 0001592  94.6112 265.5062 15.08837126 38971,6917.889,95.438,540.856,538.653,0.0
53399.0,STARLINK-4528,PAYLOAD,2023-04-21 11:21:22,15.08834921,0.0001661,53.2153,172.1935,105.5985,254.519,1.612e-05,-3.2e-07,0.0,0 STARLINK-4528,1 53399U 22097M   23111.47317367 -.00000032  00000-0  16120-4 0  9995,2 53399  53.2153 172.1935 0001661 105.5985 254.5190 15.08834921 39510,6917.896,95.438,540.91,538.612,0.0
53399.0,STARLINK-4528,PAYLOAD,2023-04-21 20:53:40,15.08842777,0.0001291,53.2135,170.4088,90.6277,269.4863,0.00012706,1.735e-05,0.0,0 STARLINK-4528,1 53399U 22097M   23111.87061196  .00001735  00000-0  12706-3 0  9990,2 53399  53.2135 170.4088 0001291  90.6277 269.4863 15.08842777 39573,6917.872,95.437,540.63,538.844,0.0
53399.0,STARLINK-4528,PAYLOAD,2023-04-22 20:44:27,15.08835636,6.79e-05,53.2124,165.9487,123.4418,236.6639,-0.00039695,-6.599e-05,0.0,0 STARLINK-4528,1 53399U 22097M   23112.86420729 -.00006599  00000-0 -39695-3 0  9992,2 53399  53.2124 165.9487 0000679 123.4418 236.6639 15.08835636 39230,6917.894,95.438,540.228,539.289,0.0
53399.0,STARLINK-4528,PAYLOAD,2023-04-23 12:38:18,15.08843167,6.52e-05,53.2127,162.9741,117.8531,242.2527,0.00034827,5.26e-05,0.0,0 STARLINK-4528,1 53399U 22097M   23113.52660839  .00005260  00000-0  34827-3 0  9998,2 53399  53.2127 162.9741 0000652 117.8531 242.2527 15.08843167 39829,6917.871,95.437,540.187,539.285,0.0
53399.0,STARLINK-4528,PAYLOAD,2023-04-24 02:56:47,15.08853363,0.0001422,53.2127,160.2975,97.5506,262.5648,0.00096008,0.0001503,0.0,0 STARLINK-4528,1 53399U 22097M   23114.12277166  .00015030  00000-0  96008-3 0  9997,2 53399  53.2127 160.2975 0001422  97.5506 262.5648 15.08853363 39919,6917.84,95.437,540.688,538.721,0.0
53399.0,STARLINK-4528,PAYLOAD,2023-04-24 14:04:28,15.08904511,0.0001466,53.2125,158.2152,97.2994,262.8165,0.0026203,0.00041735,0.0,0 STARLINK-4528,1 53399U 22097M   23114.58643959  .00041735  00000-0  26203-2 0  9994,2 53399  53.2125 158.2152 0001466  97.2994 262.8165 15.08904511 39499,6917.683,95.433,540.562,538.534,0.0
53399.0,STARLINK-4528,PAYLOAD,2023-04-25 12:19:53,15.08806427,0.0001398,53.2147,154.0499,112.3133,247.8007,-0.00036945,-6.157e-05,0.0,0 STARLINK-4528,1 53399U 22097M   23115.51381887 -.00006157  00000-0 -36945-3 0  9993,2 53399  53.2147 154.0499 0001398 112.3133 247.8007 15.08806427 40126,6917.983,95.44,540.815,538.881,0.0
53399.0,STARLINK-4528,PAYLOAD,2023-04-26 08:59:56,15.08816492,0.0001252,53.2152,150.1858,89.3194,270.7942,0.00037712,5.715e-05,0.0,0 STARLINK-4528,1 53399U 22097M   23116.37495726  .00005715  00000-0  37712-3 0  9996,2 53399  53.2152 150.1858 0001252  89.3194 270.7942 15.08816492 40257,6917.952,95.439,540.683,538.951,0.0
